[Satellite]
VERSION=1.1
NAME=FLOCK 2E-2
NICKNAME=FLOCK 2E-2
TLE1=1 41484U 98067JE  18021.15208568  .01880589  37433-2  11688-2 0  9995
TLE2=2 41484  51.6306 327.5459 0007627 168.7534 191.4617 16.18089724 96162
